[
    {
        "Altitude(m)": 707487.2497900628,
        "Argument of Periapsis(deg)": 0.006834072711976239,
        "Eccentricity": 0.0,
        "Inclination(deg)": 45.0,
        "Latitude(deg)": -18.07339984350564,
        "Longitude(deg)": -94.39227318672734,
        "Mean Anomaly(deg)": 334.1926299884885,
        "RAAN(deg)": 24.99354883512508,
        "Satellite Name": "Constellation 1 130",
        "Satellite Number": 130,
        "Semi-Major Axis(m)": 7083131.272910544,
        "Time(s)": 114
    },
    {
        "Altitude(m)": 707474.5750381243,
        "Argument of Periapsis(deg)": 0.006894020718221645,
        "Eccentricity": 0.0,
        "Inclination(deg)": 45.0,
        "Latitude(deg)": -18.0325937916016,
        "Longitude(deg)": -94.34904553933661,
        "Mean Anomaly(deg)": 334.25333112873835,
        "RAAN(deg)": 24.99349224595951,
        "Satellite Name": "Constellation 1 130",
        "Satellite Number": 130,
        "Semi-Major Axis(m)": 7083131.272910544,
        "Time(s)": 115
    },
    {
        "Altitude(m)": 707461.9104446628,
        "Argument of Periapsis(deg)": 0.006953968724467052,
        "Eccentricity": 0.0,
        "Inclination(deg)": 45.0,
        "Latitude(deg)": -17.991775899822294,
        "Longitude(deg)": -94.30583958331317,
        "Mean Anomaly(deg)": 334.3140322689883,
        "RAAN(deg)": 24.99343565679394,
        "Satellite Name": "Constellation 1 130",
        "Satellite Number": 130,
        "Semi-Major Axis(m)": 7083131.272910544,
        "Time(s)": 116
    },
    {
        "Altitude(m)": 707449.2560497889,
        "Argument of Periapsis(deg)": 0.007013916730712457,
        "Eccentricity": 0.0,
        "Inclination(deg)": 45.0,
        "Latitude(deg)": -17.95094620159697,
        "Longitude(deg)": -94.26265526226483,
        "Mean Anomaly(deg)": 334.37473340923816,
        "RAAN(deg)": 24.99337906762837,
        "Satellite Name": "Constellation 1 130",
        "Satellite Number": 130,
        "Semi-Major Axis(m)": 7083131.272910544,
        "Time(s)": 117
    },
    {
        "Altitude(m)": 707436.6118935399,
        "Argument of Periapsis(deg)": 0.007073864736957864,
        "Eccentricity": 0.0,
        "Inclination(deg)": 45.0,
        "Latitude(deg)": -17.91010473031299,
        "Longitude(deg)": -94.2194925198295,
        "Mean Anomaly(deg)": 334.43543454948804,
        "RAAN(deg)": 24.993322478462797,
        "Satellite Name": "Constellation 1 130",
        "Satellite Number": 130,
        "Semi-Major Axis(m)": 7083131.272910544,
        "Time(s)": 118
    },
    {
        "Altitude(m)": 707423.9780159157,
        "Argument of Periapsis(deg)": 0.0071338127432032696,
        "Eccentricity": 0.0,
        "Inclination(deg)": 45.0,
        "Latitude(deg)": -17.869251519315444,
        "Longitude(deg)": -94.17635146777181,
        "Mean Anomaly(deg)": 334.49613568973797,
        "RAAN(deg)": 24.99326588929723,
        "Satellite Name": "Constellation 1 130",
        "Satellite Number": 130,
        "Semi-Major Axis(m)": 7083131.272910544,
        "Time(s)": 119
    },
    {
        "Altitude(m)": 707411.3544568609,
        "Argument of Periapsis(deg)": 0.007193760749448674,
        "Eccentricity": 0.0,
        "Inclination(deg)": 45.0,
        "Latitude(deg)": -17.82838660190778,
        "Longitude(deg)": -94.13323171359502,
        "Mean Anomaly(deg)": 334.5568368299879,
        "RAAN(deg)": 24.99320930013166,
        "Satellite Name": "Constellation 1 130",
        "Satellite Number": 130,
        "Semi-Major Axis(m)": 7083131.272910544,
        "Time(s)": 120
    },
    {
        "Altitude(m)": 707398.7412562551,
        "Argument of Periapsis(deg)": 0.007253708755694079,
        "Eccentricity": 0.0,
        "Inclination(deg)": 45.0,
        "Latitude(deg)": -17.787510011351703,
        "Longitude(deg)": -94.09013336912382,
        "Mean Anomaly(deg)": 334.6175379702378,
        "RAAN(deg)": 24.993152710966093,
        "Satellite Name": "Constellation 1 130",
        "Satellite Number": 130,
        "Semi-Major Axis(m)": 7083131.272910544,
        "Time(s)": 121
    },
    {
        "Altitude(m)": 707386.1384539333,
        "Argument of Periapsis(deg)": 0.0073136567619394854,
        "Eccentricity": 0.0,
        "Inclination(deg)": 45.0,
        "Latitude(deg)": -17.746621780867056,
        "Longitude(deg)": -94.04705637811543,
        "Mean Anomaly(deg)": 334.67823911048765,
        "RAAN(deg)": 24.993096121800523,
        "Satellite Name": "Constellation 1 130",
        "Satellite Number": 130,
        "Semi-Major Axis(m)": 7083131.272910544,
        "Time(s)": 122
    },
    {
        "Altitude(m)": 707373.546089668,
        "Argument of Periapsis(deg)": 0.0073736047681848904,
        "Eccentricity": 0.0,
        "Inclination(deg)": 45.0,
        "Latitude(deg)": -17.70572194363223,
        "Longitude(deg)": -94.00400068435711,
        "Mean Anomaly(deg)": 334.7389402507376,
        "RAAN(deg)": 24.993039532634953,
        "Satellite Name": "Constellation 1 130",
        "Satellite Number": 130,
        "Semi-Major Axis(m)": 7083131.272910544,
        "Time(s)": 123
    },
    {
        "Altitude(m)": 707360.9642031827,
        "Argument of Periapsis(deg)": 0.007433552774430298,
        "Eccentricity": 0.0,
        "Inclination(deg)": 45.0,
        "Latitude(deg)": -17.66481053278439,
        "Longitude(deg)": -93.9609662316663,
        "Mean Anomaly(deg)": 334.7996413909875,
        "RAAN(deg)": 24.992982943469382,
        "Satellite Name": "Constellation 1 130",
        "Satellite Number": 130,
        "Semi-Major Axis(m)": 7083131.272910544,
        "Time(s)": 124
    },
    {
        "Altitude(m)": 707348.392834143,
        "Argument of Periapsis(deg)": 0.007493500780675703,
        "Eccentricity": 0.0,
        "Inclination(deg)": 45.0,
        "Latitude(deg)": -17.623887581419105,
        "Longitude(deg)": -93.9179529638902,
        "Mean Anomaly(deg)": 334.8603425312374,
        "RAAN(deg)": 24.992926354303815,
        "Satellite Name": "Constellation 1 130",
        "Satellite Number": 130,
        "Semi-Major Axis(m)": 7083131.272910544,
        "Time(s)": 125
    },
    {
        "Altitude(m)": 707335.8320221577,
        "Argument of Periapsis(deg)": 0.007553448786921108,
        "Eccentricity": 0.0,
        "Inclination(deg)": 45.0,
        "Latitude(deg)": -17.582953122590837,
        "Longitude(deg)": -93.87496099300319,
        "Mean Anomaly(deg)": 334.92104367148727,
        "RAAN(deg)": 24.992869765138245,
        "Satellite Name": "Constellation 1 130",
        "Satellite Number": 130,
        "Semi-Major Axis(m)": 7083131.272910544,
        "Time(s)": 126
    },
    {
        "Altitude(m)": 707323.2818067895,
        "Argument of Periapsis(deg)": 0.007613396793166514,
        "Eccentricity": 0.0,
        "Inclination(deg)": 45.0,
        "Latitude(deg)": -17.54200718931315,
        "Longitude(deg)": -93.83198992671835,
        "Mean Anomaly(deg)": 334.98174481173714,
        "RAAN(deg)": 24.992813175972678,
        "Satellite Name": "Constellation 1 130",
        "Satellite Number": 130,
        "Semi-Major Axis(m)": 7083131.272910544,
        "Time(s)": 127
    },
    {
        "Altitude(m)": 707310.7422275324,
        "Argument of Periapsis(deg)": 0.007673344799411918,
        "Eccentricity": 0.0,
        "Inclination(deg)": 45.0,
        "Latitude(deg)": -17.501049814558332,
        "Longitude(deg)": -93.78903987707008,
        "Mean Anomaly(deg)": -24.957554048012916,
        "RAAN(deg)": 24.992756586807104,
        "Satellite Name": "Constellation 1 130",
        "Satellite Number": 130,
        "Semi-Major Axis(m)": 7083131.272910544,
        "Time(s)": 128
    },
    {
        "Altitude(m)": 707298.213323831,
        "Argument of Periapsis(deg)": 0.007733292805657325,
        "Eccentricity": 0.0,
        "Inclination(deg)": 45.0,
        "Latitude(deg)": -17.460081031258092,
        "Longitude(deg)": -93.74611078802593,
        "Mean Anomaly(deg)": -24.896852907763055,
        "RAAN(deg)": 24.992699997641534,
        "Satellite Name": "Constellation 1 130",
        "Satellite Number": 130,
        "Semi-Major Axis(m)": 7083131.272910544,
        "Time(s)": 129
    },
    {
        "Altitude(m)": 707285.6951350757,
        "Argument of Periapsis(deg)": 0.00779324081190273,
        "Eccentricity": 0.0,
        "Inclination(deg)": 45.0,
        "Latitude(deg)": -17.41910087230319,
        "Longitude(deg)": -93.70320260358325,
        "Mean Anomaly(deg)": -24.836151767513147,
        "RAAN(deg)": 24.992643408475967,
        "Satellite Name": "Constellation 1 130",
        "Satellite Number": 130,
        "Semi-Major Axis(m)": 7083131.272910544,
        "Time(s)": 130
    },
    {
        "Altitude(m)": 707273.1877005937,
        "Argument of Periapsis(deg)": 0.007853188818148135,
        "Eccentricity": 0.0,
        "Inclination(deg)": 45.0,
        "Latitude(deg)": -17.37810937054387,
        "Longitude(deg)": -93.66031526776975,
        "Mean Anomaly(deg)": -24.775450627263236,
        "RAAN(deg)": 24.992586819310397,
        "Satellite Name": "Constellation 1 130",
        "Satellite Number": 130,
        "Semi-Major Axis(m)": 7083131.272910544,
        "Time(s)": 131
    },
    {
        "Altitude(m)": 707260.6910596606,
        "Argument of Periapsis(deg)": 0.007913136824393542,
        "Eccentricity": 0.0,
        "Inclination(deg)": 45.0,
        "Latitude(deg)": -17.33710655878984,
        "Longitude(deg)": -93.61744872464308,
        "Mean Anomaly(deg)": -24.71474948701333,
        "RAAN(deg)": 24.99253023014483,
        "Satellite Name": "Constellation 1 130",
        "Satellite Number": 130,
        "Semi-Major Axis(m)": 7083131.272910544,
        "Time(s)": 132
    }
]